[{"OBJECT_NAME":"CONNECTA IOT-7","OBJECT_ID":"2025-009DL","EPOCH":"2026-03-09T17:11:16.301760","MEAN_MOTION":14.93962714,"ECCENTRICITY":0.00023003,"INCLINATION":97.7131,"RA_OF_ASC_NODE":149.3044,"ARG_OF_PERICENTER":127.5,"MEAN_ANOMALY":232.643,"EPHEMERIS_TYPE":0,"CLASSIFICATION_TYPE":"U","NORAD_CAT_ID":62715,"ELEMENT_SET_NO":999,"REV_AT_EPOCH":6249,"BSTAR":0.00016028369,"MEAN_MOTION_DOT":1.651e-5,"MEAN_MOTION_DDOT":0},{"OBJECT_NAME":"OBJECT C","OBJECT_ID":"2025-274C","EPOCH":"2026-03-09T09:15:50.748192","MEAN_MOTION":14.92548925,"ECCENTRICITY":0.00113303,"INCLINATION":97.7436,"RA_OF_ASC_NODE":359.0846,"ARG_OF_PERICENTER":338.0419,"MEAN_ANOMALY":22.0314,"EPHEMERIS_TYPE":0,"CLASSIFICATION_TYPE":"U","NORAD_CAT_ID":66652,"ELEMENT_SET_NO":999,"REV_AT_EPOCH":1532,"BSTAR":0.00033513177,"MEAN_MOTION_DOT":3.392e-5,"MEAN_MOTION_DDOT":0}]
